[{"OBJECT_NAME":"GHGSAT-C5","OBJECT_ID":"2022-057N","EPOCH":"2026-03-09T21:50:12.501024","MEAN_MOTION":15.32921902,"ECCENTRICITY":0.00082696,"INCLINATION":97.6522,"RA_OF_ASC_NODE":212.4963,"ARG_OF_PERICENTER":109.8004,"MEAN_ANOMALY":250.413,"EPHEMERIS_TYPE":0,"CLASSIFICATION_TYPE":"U","NORAD_CAT_ID":52744,"ELEMENT_SET_NO":999,"REV_AT_EPOCH":21032,"BSTAR":0.00029214604,"MEAN_MOTION_DOT":9.218e-5,"MEAN_MOTION_DDOT":0},{"OBJECT_NAME":"STARLINK-31311","OBJECT_ID":"2024-027T","EPOCH":"2026-03-09T23:26:47.851008","MEAN_MOTION":15.30172647,"ECCENTRICITY":0.00013077,"INCLINATION":53.1608,"RA_OF_ASC_NODE":306.0707,"ARG_OF_PERICENTER":72.0046,"MEAN_ANOMALY":288.1097,"EPHEMERIS_TYPE":0,"CLASSIFICATION_TYPE":"U","NORAD_CAT_ID":58948,"ELEMENT_SET_NO":999,"REV_AT_EPOCH":11740,"BSTAR":-1.1276791e-5,"MEAN_MOTION_DOT":-6.93e-6,"MEAN_MOTION_DDOT":0}]
